[{"OBJECT_NAME":"TIANMU-1 19","OBJECT_ID":"2023-208A","EPOCH":"2026-03-09T22:13:36.801696","MEAN_MOTION":15.2984143,"ECCENTRICITY":0.00039292,"INCLINATION":97.4383,"RA_OF_ASC_NODE":184.9132,"ARG_OF_PERICENTER":316.2611,"MEAN_ANOMALY":43.8317,"EPHEMERIS_TYPE":0,"CLASSIFICATION_TYPE":"U","NORAD_CAT_ID":58660,"ELEMENT_SET_NO":999,"REV_AT_EPOCH":12214,"BSTAR":0.00040995676,"MEAN_MOTION_DOT":0.00011779,"MEAN_MOTION_DDOT":0},{"OBJECT_NAME":"STARLINK-35630","OBJECT_ID":"2025-237T","EPOCH":"2026-03-09T07:40:35.894496","MEAN_MOTION":15.30196359,"ECCENTRICITY":0.00015874,"INCLINATION":53.1613,"RA_OF_ASC_NODE":41.3639,"ARG_OF_PERICENTER":83.842,"MEAN_ANOMALY":276.2762,"EPHEMERIS_TYPE":0,"CLASSIFICATION_TYPE":"U","NORAD_CAT_ID":66131,"ELEMENT_SET_NO":999,"REV_AT_EPOCH":2255,"BSTAR":0.0010811744,"MEAN_MOTION_DOT":0.00031796,"MEAN_MOTION_DDOT":0}]
